{
  "type": "FeatureCollection",
  "features": [
    {
      "type": "Feature",
      "properties": {
        "norad_id": 43647,
        "name": "BEIDOU-3 M16 (C35)",
        "group": "gnss",
        "lat": 34.60334966709771,
        "lon": -23.96495628683573,
        "alt_km": 21505.11057690045,
        "timestamp": "2025-12-19T04:59:48.548928+00:00",
        "meta_object_name": "BEIDOU-3 M16 (C35)",
        "meta_object_id": "2018-078A",
        "meta_epoch": "2025-12-18T14:31:23.928384",
        "meta_mean_motion": 1.86232416,
        "meta_eccentricity": 0.00073312,
        "meta_inclination": 54.2565,
        "meta_ra_of_asc_node": 306.3163,
        "meta_arg_of_pericenter": 19.8035,
        "meta_mean_anomaly": 340.2135,
        "meta_ephemeris_type": 0,
        "meta_classification_type": "U",
        "meta_norad_cat_id": 43647,
        "meta_element_set_no": 999,
        "meta_rev_at_epoch": 4879,
        "meta_bstar": 0,
        "meta_mean_motion_dot": -8.1e-07,
        "meta_mean_motion_ddot": 0,
        "tle_line1": "1 43647U 18078A   25352.60513806 -.00000081  00000+0  00000+0 0  9992",
        "tle_line2": "2 43647  54.2565 306.3163 0007331  19.8035 340.2135  1.86232416 48794"
      },
      "geometry": {
        "type": "Point",
        "coordinates": [
          -23.96495628683573,
          34.60334966709771
        ]
      }
    },
    {
      "type": "Feature",
      "properties": {
        "norad_id": 43648,
        "name": "BEIDOU-3 M15 (C34)",
        "group": "gnss",
        "lat": -33.1343775703449,
        "lon": -81.74695012194907,
        "alt_km": 21526.944409210228,
        "timestamp": "2025-12-19T04:59:48.548940+00:00",
        "meta_object_name": "BEIDOU-3 M15 (C34)",
        "meta_object_id": "2018-078B",
        "meta_epoch": "2025-12-18T04:44:16.550592",
        "meta_mean_motion": 1.86232281,
        "meta_eccentricity": 0.00039569,
        "meta_inclination": 54.2524,
        "meta_ra_of_asc_node": 306.3307,
        "meta_arg_of_pericenter": 20.2527,
        "meta_mean_anomaly": 339.7508,
        "meta_ephemeris_type": 0,
        "meta_classification_type": "U",
        "meta_norad_cat_id": 43648,
        "meta_element_set_no": 999,
        "meta_rev_at_epoch": 4880,
        "meta_bstar": 0,
        "meta_mean_motion_dot": -8.5e-07,
        "meta_mean_motion_ddot": 0,
        "tle_line1": "1 43648U 18078B   25352.19741378 -.00000085  00000+0  00000+0 0  9998",
        "tle_line2": "2 43648  54.2524 306.3307 0003956  20.2527 339.7508  1.86232281 48800"
      },
      "geometry": {
        "type": "Point",
        "coordinates": [
          -81.74695012194907,
          -33.1343775703449
        ]
      }
    },
    {
      "type": "Feature",
      "properties": {
        "norad_id": 43683,
        "name": "BEIDOU-3 G1 (C59)",
        "group": "gnss",
        "lat": -0.930891811824488,
        "lon": -56.97214414134039,
        "alt_km": 35793.09581640781,
        "timestamp": "2025-12-19T04:59:48.548953+00:00",
        "meta_object_name": "BEIDOU-3 G1 (C59)",
        "meta_object_id": "2018-085A",
        "meta_epoch": "2025-12-18T22:31:16.603104",
        "meta_mean_motion": 1.00269058,
        "meta_eccentricity": 0.00016284,
        "meta_inclination": 2.6228,
        "meta_ra_of_asc_node": 102.7865,
        "meta_arg_of_pericenter": 47.4963,
        "meta_mean_anomaly": 55.3654,
        "meta_ephemeris_type": 0,
        "meta_classification_type": "U",
        "meta_norad_cat_id": 43683,
        "meta_element_set_no": 999,
        "meta_rev_at_epoch": 2625,
        "meta_bstar": 0,
        "meta_mean_motion_dot": -2.55e-06,
        "meta_mean_motion_ddot": 0,
        "tle_line1": "1 43683U 18085A   25352.93838661 -.00000255  00000+0  00000+0 0  9998",
        "tle_line2": "2 43683   2.6228 102.7865 0001628  47.4963  55.3654  1.00269058 26259"
      },
      "geometry": {
        "type": "Point",
        "coordinates": [
          -56.97214414134039,
          -0.930891811824488
        ]
      }
    },
    {
      "type": "Feature",
      "properties": {
        "norad_id": 43687,
        "name": "COSMOS 2529 (757)",
        "group": "gnss",
        "lat": 8.510556962325916,
        "lon": 14.538696410143043,
        "alt_km": 19127.12966343377,
        "timestamp": "2025-12-19T04:59:48.548967+00:00",
        "meta_object_name": "COSMOS 2529 (757)",
        "meta_object_id": "2018-086A",
        "meta_epoch": "2025-12-18T12:23:46.661856",
        "meta_mean_motion": 2.13102105,
        "meta_eccentricity": 0.00070461,
        "meta_inclination": 64.2922,
        "meta_ra_of_asc_node": 198.6932,
        "meta_arg_of_pericenter": 253.6593,
        "meta_mean_anomaly": 106.345,
        "meta_ephemeris_type": 0,
        "meta_classification_type": "U",
        "meta_norad_cat_id": 43687,
        "meta_element_set_no": 999,
        "meta_rev_at_epoch": 5543,
        "meta_bstar": 0,
        "meta_mean_motion_dot": 1.09e-06,
        "meta_mean_motion_ddot": 0,
        "tle_line1": "1 43687U 18086A   25352.51651229  .00000109  00000+0  00000+0 0  9997",
        "tle_line2": "2 43687  64.2922 198.6932 0007046 253.6593 106.3450  2.13102105 55434"
      },
      "geometry": {
        "type": "Point",
        "coordinates": [
          14.538696410143043,
          8.510556962325916
        ]
      }
    },
    {
      "type": "Feature",
      "properties": {
        "norad_id": 43706,
        "name": "BEIDOU-3 M17 (C36)",
        "group": "gnss",
        "lat": -24.857751408465745,
        "lon": 27.973448839610025,
        "alt_km": 21533.4853086743,
        "timestamp": "2025-12-19T04:59:48.548978+00:00",
        "meta_object_name": "BEIDOU-3 M17 (C36)",
        "meta_object_id": "2018-093A",
        "meta_epoch": "2025-12-15T07:56:44.520576",
        "meta_mean_motion": 1.86228523,
        "meta_eccentricity": 0.00061371,
        "meta_inclination": 54.1729,
        "meta_ra_of_asc_node": 188.5337,
        "meta_arg_of_pericenter": 307.6759,
        "meta_mean_anomaly": 184.25,
        "meta_ephemeris_type": 0,
        "meta_classification_type": "U",
        "meta_norad_cat_id": 43706,
        "meta_element_set_no": 999,
        "meta_rev_at_epoch": 4811,
        "meta_bstar": 0,
        "meta_mean_motion_dot": 1.13e-06,
        "meta_mean_motion_ddot": 0,
        "tle_line1": "1 43706U 18093A   25349.33107084  .00000113  00000+0  00000+0 0  9993",
        "tle_line2": "2 43706  54.1729 188.5337 0006137 307.6759 184.2500  1.86228523 48110"
      },
      "geometry": {
        "type": "Point",
        "coordinates": [
          27.973448839610025,
          -24.857751408465745
        ]
      }
    },
    {
      "type": "Feature",
      "properties": {
        "norad_id": 43707,
        "name": "BEIDOU-3 M18 (C37)",
        "group": "gnss",
        "lat": -42.169693897077984,
        "lon": 147.5028673161288,
        "alt_km": 21521.8903929289,
        "timestamp": "2025-12-19T04:59:48.548989+00:00",
        "meta_object_name": "BEIDOU-3 M18 (C37)",
        "meta_object_id": "2018-093B",
        "meta_epoch": "2025-12-16T14:33:42.784416",
        "meta_mean_motion": 1.8622677,
        "meta_eccentricity": 0.00063186,
        "meta_inclination": 54.1735,
        "meta_ra_of_asc_node": 188.4822,
        "meta_arg_of_pericenter": 353.2257,
        "meta_mean_anomaly": 6.8349,
        "meta_ephemeris_type": 0,
        "meta_classification_type": "U",
        "meta_norad_cat_id": 43707,
        "meta_element_set_no": 999,
        "meta_rev_at_epoch": 4813,
        "meta_bstar": 0,
        "meta_mean_motion_dot": 1.15e-06,
        "meta_mean_motion_ddot": 0,
        "tle_line1": "1 43707U 18093B   25350.60674519  .00000115  00000+0  00000+0 0  9990",
        "tle_line2": "2 43707  54.1735 188.4822 0006318 353.2257   6.8349  1.86226770 48131"
      },
      "geometry": {
        "type": "Point",
        "coordinates": [
          147.5028673161288,
          -42.169693897077984
        ]
      }
    },
    {
      "type": "Feature",
      "properties": {
        "norad_id": 43873,
        "name": "GPS BIII-1  (PRN 04)",
        "group": "gnss",
        "lat": 36.80987151376291,
        "lon": -111.55163325514296,
        "alt_km": 20131.11255316136,
        "timestamp": "2025-12-19T04:59:48.549001+00:00",
        "meta_object_name": "GPS BIII-1  (PRN 04)",
        "meta_object_id": "2018-109A",
        "meta_epoch": "2025-12-18T12:57:04.857120",
        "meta_mean_motion": 2.00553911,
        "meta_eccentricity": 0.0037524,
        "meta_inclination": 55.5701,
        "meta_ra_of_asc_node": 99.3182,
        "meta_arg_of_pericenter": 195.2606,
        "meta_mean_anomaly": 175.7707,
        "meta_ephemeris_type": 0,
        "meta_classification_type": "U",
        "meta_norad_cat_id": 43873,
        "meta_element_set_no": 999,
        "meta_rev_at_epoch": 5145,
        "meta_bstar": 0,
        "meta_mean_motion_dot": -3e-07,
        "meta_mean_motion_ddot": 0,
        "tle_line1": "1 43873U 18109A   25352.53963955 -.00000030  00000+0  00000+0 0  9998",
        "tle_line2": "2 43873  55.5701  99.3182 0037524 195.2606 175.7707  2.00553911 51457"
      },
      "geometry": {
        "type": "Point",
        "coordinates": [
          -111.55163325514296,
          36.80987151376291
        ]
      }
    }
  ]
}